[
    {
        "OBJECT_NAME": "GSAT0223 (GALILEO 27)",
        "OBJECT_ID": "2021-116A",
        "EPOCH": "2025-03-01T12:10:55.181568",
        "MEAN_MOTION": 1.70474991,
        "ECCENTRICITY": 0.0002338,
        "INCLINATION": 57.2791,
        "RA_OF_ASC_NODE": 354.4336,
        "ARG_OF_PERICENTER": 276.9802,
        "MEAN_ANOMALY": 269.0345,
        "EPHEMERIS_TYPE": 0,
        "CLASSIFICATION_TYPE": "U",
        "NORAD_CAT_ID": 49809,
        "ELEMENT_SET_NO": 999,
        "REV_AT_EPOCH": 2012,
        "BSTAR": 0,
        "MEAN_MOTION_DOT": -8.5e-07,
        "MEAN_MOTION_DDOT": 0
    },
    {
        "OBJECT_NAME": "GSAT0224 (GALILEO 28)",
        "OBJECT_ID": "2021-116B",
        "EPOCH": "2025-02-26T21:55:11.000064",
        "MEAN_MOTION": 1.70475239,
        "ECCENTRICITY": 0.0002005,
        "INCLINATION": 57.2805,
        "RA_OF_ASC_NODE": 354.5024,
        "ARG_OF_PERICENTER": 291.9057,
        "MEAN_ANOMALY": 214.5004,
        "EPHEMERIS_TYPE": 0,
        "CLASSIFICATION_TYPE": "U",
        "NORAD_CAT_ID": 49810,
        "ELEMENT_SET_NO": 999,
        "REV_AT_EPOCH": 2009,
        "BSTAR": 0,
        "MEAN_MOTION_DOT": -8e-07,
        "MEAN_MOTION_DDOT": 0
    },
    {
        "OBJECT_NAME": "GSAT0225 (GALILEO 29)",
        "OBJECT_ID": "2024-079A",
        "EPOCH": "2025-03-02T04:52:38.679744",
        "MEAN_MOTION": 1.70474993,
        "ECCENTRICITY": 0.0002915,
        "INCLINATION": 54.8327,
        "RA_OF_ASC_NODE": 114.2841,
        "ARG_OF_PERICENTER": 232.6017,
        "MEAN_ANOMALY": 124.54,
        "EPHEMERIS_TYPE": 0,
        "CLASSIFICATION_TYPE": "U",
        "NORAD_CAT_ID": 59598,
        "ELEMENT_SET_NO": 999,
        "REV_AT_EPOCH": 526,
        "BSTAR": 0,
        "MEAN_MOTION_DOT": 2.4e-07,
        "MEAN_MOTION_DDOT": 0
    },
    {
        "OBJECT_NAME": "GSAT0227 (GALILEO 30)",
        "OBJECT_ID": "2024-079C",
        "EPOCH": "2025-03-01T05:14:13.502112",
        "MEAN_MOTION": 1.7047484,
        "ECCENTRICITY": 5.19e-05,
        "INCLINATION": 54.8275,
        "RA_OF_ASC_NODE": 114.3117,
        "ARG_OF_PERICENTER": 181.4581,
        "MEAN_ANOMALY": 178.6349,
        "EPHEMERIS_TYPE": 0,
        "CLASSIFICATION_TYPE": "U",
        "NORAD_CAT_ID": 59600,
        "ELEMENT_SET_NO": 999,
        "REV_AT_EPOCH": 530,
        "BSTAR": 0,
        "MEAN_MOTION_DOT": 2.8e-07,
        "MEAN_MOTION_DDOT": 0
    },
    {
        "OBJECT_NAME": "GSAT0232 (GALILEO 32)",
        "OBJECT_ID": "2024-167A",
        "EPOCH": "2025-03-02T09:50:51.831168",
        "MEAN_MOTION": 1.70473634,
        "ECCENTRICITY": 0.0002334,
        "INCLINATION": 55.3452,
        "RA_OF_ASC_NODE": 234.2548,
        "ARG_OF_PERICENTER": 176.5739,
        "MEAN_ANOMALY": 30.3834,
        "EPHEMERIS_TYPE": 0,
        "CLASSIFICATION_TYPE": "U",
        "NORAD_CAT_ID": 61182,
        "ELEMENT_SET_NO": 999,
        "REV_AT_EPOCH": 283,
        "BSTAR": 0,
        "MEAN_MOTION_DOT": 4.8e-07,
        "MEAN_MOTION_DDOT": 0
    },
    {
        "OBJECT_NAME": "GSAT0226 (GALILEO 31)",
        "OBJECT_ID": "2024-167B",
        "EPOCH": "2025-03-02T13:03:08.432640",
        "MEAN_MOTION": 1.70473731,
        "ECCENTRICITY": 0.0002105,
        "INCLINATION": 55.3442,
        "RA_OF_ASC_NODE": 234.2568,
        "ARG_OF_PERICENTER": 116.9913,
        "MEAN_ANOMALY": 284.4645,
        "EPHEMERIS_TYPE": 0,
        "CLASSIFICATION_TYPE": "U",
        "NORAD_CAT_ID": 61183,
        "ELEMENT_SET_NO": 999,
        "REV_AT_EPOCH": 281,
        "BSTAR": 0,
        "MEAN_MOTION_DOT": 4.8e-07,
        "MEAN_MOTION_DDOT": 0
    }
]